id,spkid,full_name,pdes,name,prefix,neo,pha,H,G,M1,M2,K1,K2,PC,diameter,extent,albedo,rot_per,GM,BV,UB,IR,spec_B,spec_T,H_sigma,diameter_sigma,orbit_id,epoch,epoch_mjd,epoch_cal,equinox,e,a,q,i,om,w,ma,ad,n,tp,tp_cal,per,per_y,moid,moid_ld,moid_jup,t_jup,sigma_e,sigma_a,sigma_q,sigma_i,sigma_om,sigma_w,sigma_ma,sigma_ad,sigma_n,sigma_tp,sigma_per,class,producer,data_arc,first_obs,last_obs,n_obs_used,n_del_obs_used,n_dop_obs_used,condition_code,rms,two_body,A1,A2,A3,DT
bK20A01W,3976540,       (2020 AW1),2020 AW1,,,Y,N,25.4,,,,,,,,,,,,,,,,,.49674,,JPL 5,2458856.5,58856,20200108.0000000,J2000,.512543541255626,2.113702932740605,1.030338146431333,3.761768683472177,94.80117044120394,32.82934521114608,354.3755020366381,3.197067719049877,.3207289399889373,2458874.036608837219,20200125.5366088,1122.443144707856,3.07308184724943,.0567366,22.080182622,1.88903,3.554,.0014091,.0063525,.00011812,.0082005,8.8372E-5,.0057355,.025699,.0096085,.0014459,.0010864,5.0601,AMO,Otto Matic,19,2020-01-04,2020-01-23,50,,,8,.44495,,,,,
bK20A01X,3976541,       (2020 AX1),2020 AX1,,,Y,N,24.2,,,,,,,,,,,,,,,,,.43792,,JPL 3,2458854.5,58854,20200106.0000000,J2000,.6042036519449301,2.431087482363437,.9622155473218424,.8923079202191836,33.00436975771237,112.2210598462641,351.9737340893894,3.89995941740503,.2600178681002518,2458885.368132137427,20200205.8681321,1384.520235590884,3.79060981681282,.0108577,4.225491109,1.12797,3.230,.0023721,.014482,3.4877E-5,.003004,.043932,.031631,.07539,.023233,.0023234,.014118,12.372,APO,Otto Matic,14,2020-01-04,2020-01-18,57,,,8,.31924,,,,,
bK20A01Y,3976542,       (2020 AY1),2020 AY1,,,Y,N,25.1,,,,,,,,,,,,,,,,,.30656,,JPL 18,2459000.5,59000,20200531.0000000,J2000,.2219141774132143,.8804803873565865,.6850893064678814,1.030317706980153,31.58697117766296,294.9741897684888,293.432725879221,1.075871468245292,1.19295632494179,2459056.300260855339,20200725.8002609,301.7713159092947,0.826204834796152,.00667064,2.5960129688,4.16178,6.712,1.1271E-5,3.9404E-6,1.2989E-5,4.9323E-5,.00058392,.00049055,.00034281,4.8149E-6,8.0083E-6,.00065987,.0020258,ATE,Otto Matic,45,2020-01-05,2020-02-19,129,,,4,.48003,,,,,
